{"type": "FeatureCollection", "features": [ {"type": "Feature", "properties": {"norad_id": 34375, "name": "IRIDIUM 33 DEB", "group": "iridium-33-debris", "lat": 48.25914929470299, "lon": -171.22635195077103, "alt_km": 832.860279679745, "timestamp": "2025-12-07T14:37:05.588820+00:00", "meta": {"OBJECT_NAME": "IRIDIUM 33 DEB", "OBJECT_ID": "1997-051FT", "EPOCH": "2025-12-06T13:07:23.276352", "MEAN_MOTION": 14.17975687, "ECCENTRICITY": 0.01028144, "INCLINATION": 86.433, "RA_OF_ASC_NODE": 185.193, "ARG_OF_PERICENTER": 146.2209, "MEAN_ANOMALY": 244.0709, "EPHEMERIS_TYPE": 0, "CLASSIFICATION_TYPE": "U", "NORAD_CAT_ID": 34375, "ELEMENT_SET_NO": 999, "REV_AT_EPOCH": 86624, "BSTAR": 0.00069808059, "MEAN_MOTION_DOT": 1.524e-05, "MEAN_MOTION_DDOT": 0}, "tle": {"line1": "1 34375U 97051FT  25340.54679718  .00001524  00000+0  69808-3 0  9990", "line2": "2 34375  86.4330 185.1930 0102814 146.2209 244.0709 14.17975687866242"}}, "geometry": {"type": "Point", "coordinates": [-171.22635195077103, 48.25914929470299]}}, {"type": "Feature", "properties": {"norad_id": 34376, "name": "IRIDIUM 33 DEB", "group": "iridium-33-debris", "lat": -39.00899471635068, "lon": 5.840442756788391, "alt_km": 705.4502079402782, "timestamp": "2025-12-07T14:37:05.588845+00:00", "meta": {"OBJECT_NAME": "IRIDIUM 33 DEB", "OBJECT_ID": "1997-051FU", "EPOCH": "2025-12-06T19:05:30.332544", "MEAN_MOTION": 14.6244174, "ECCENTRICITY": 0.00264861, "INCLINATION": 86.2982, "RA_OF_ASC_NODE": 9.2122, "ARG_OF_PERICENTER": 186.8183, "MEAN_ANOMALY": 173.2672, "EPHEMERIS_TYPE": 0, "CLASSIFICATION_TYPE": "U", "NORAD_CAT_ID": 34376, "ELEMENT_SET_NO": 999, "REV_AT_EPOCH": 87920, "BSTAR": 0.0024561466, "MEAN_MOTION_DOT": 0.00012526, "MEAN_MOTION_DDOT": 0}, "tle": {"line1": "1 34376U 97051FU  25340.79548996  .00012526  00000+0  24561-2 0  9991", "line2": "2 34376  86.2982   9.2122 0026486 186.8183 173.2672 14.62441740879204"}}, "geometry": {"type": "Point", "coordinates": [5.840442756788391, -39.00899471635068]}}, {"type": "Feature", "properties": {"norad_id": 34486, "name": "IRIDIUM 33 DEB", "group": "iridium-33-debris", "lat": -72.75646563241732, "lon": 2.6649806651177435, "alt_km": 596.825843685815, "timestamp": "2025-12-07T14:37:05.588858+00:00", "meta": {"OBJECT_NAME": "IRIDIUM 33 DEB", "OBJECT_ID": "1997-051GB", "EPOCH": "2025-12-06T13:48:30.216672", "MEAN_MOTION": 14.95383361, "ECCENTRICITY": 0.00132255, "INCLINATION": 86.3926, "RA_OF_ASC_NODE": 14.8692, "ARG_OF_PERICENTER": 133.3497, "MEAN_ANOMALY": 352.0422, "EPHEMERIS_TYPE": 0, "CLASSIFICATION_TYPE": "U", "NORAD_CAT_ID": 34486, "ELEMENT_SET_NO": 999, "REV_AT_EPOCH": 88894, "BSTAR": 0.0035222853, "MEAN_MOTION_DOT": 0.00039136, "MEAN_MOTION_DDOT": 0}, "tle": {"line1": "1 34486U 97051GB  25340.57534973  .00039136  00000+0  35223-2 0  9992", "line2": "2 34486  86.3926  14.8692 0013225 133.3497 352.0422 14.95383361888942"}}, "geometry": {"type": "Point", "coordinates": [2.6649806651177435, -72.75646563241732]}}, {"type": "Feature", "properties": {"norad_id": 34487, "name": "IRIDIUM 33 DEB", "group": "iridium-33-debris", "lat": -9.023774410203696, "lon": -164.83168056269366, "alt_km": 735.7562460446761, "timestamp": "2025-12-07T14:37:05.588869+00:00", "meta": {"OBJECT_NAME": "IRIDIUM 33 DEB", "OBJECT_ID": "1997-051GC", "EPOCH": "2025-12-05T08:34:04.230624", "MEAN_MOTION": 14.43201608, "ECCENTRICITY": 0.00321216, "INCLINATION": 86.3441, "RA_OF_ASC_NODE": 15.5556, "ARG_OF_PERICENTER": 151.732, "MEAN_ANOMALY": 223.5238, "EPHEMERIS_TYPE": 0, "CLASSIFICATION_TYPE": "U", "NORAD_CAT_ID": 34487, "ELEMENT_SET_NO": 999, "REV_AT_EPOCH": 88142, "BSTAR": 0.00035058691, "MEAN_MOTION_DOT": 1.205e-05, "MEAN_MOTION_DDOT": 0}, "tle": {"line1": "1 34487U 97051GC  25339.35699341  .00001205  00000+0  35059-3 0  9992", "line2": "2 34487  86.3441  15.5556 0032121 151.7320 223.5238 14.43201608881426"}}, "geometry": {"type": "Point", "coordinates": [-164.83168056269366, -9.023774410203696]}}, {"type": "Feature", "properties": {"norad_id": 34488, "name": "IRIDIUM 33 DEB", "group": "iridium-33-debris", "lat": 24.201492187757786, "lon": -49.99450670018321, "alt_km": 473.7223355749329, "timestamp": "2025-12-07T14:37:05.588880+00:00", "meta": {"OBJECT_NAME": "IRIDIUM 33 DEB", "OBJECT_ID": "1997-051GD", "EPOCH": "2025-12-06T14:55:40.946016", "MEAN_MOTION": 15.27290051, "ECCENTRICITY": 0.00149214, "INCLINATION": 86.3249, "RA_OF_ASC_NODE": 308.8374, "ARG_OF_PERICENTER": 60.0841, "MEAN_ANOMALY": 300.1886, "EPHEMERIS_TYPE": 0, "CLASSIFICATION_TYPE": "U", "NORAD_CAT_ID": 34488, "ELEMENT_SET_NO": 999, "REV_AT_EPOCH": 89146, "BSTAR": 0.0068100775, "MEAN_MOTION_DOT": 0.0018679, "MEAN_MOTION_DDOT": 0}, "tle": {"line1": "1 34488U 97051GD  25340.62200169  .00186790  00000+0  68101-2 0  9997", "line2": "2 34488  86.3249 308.8374 0014921  60.0841 300.1886 15.27290051891466"}}, "geometry": {"type": "Point", "coordinates": [-49.99450670018321, 24.201492187757786]}}, {"type": "Feature", "properties": {"norad_id": 34492, "name": "IRIDIUM 33 DEB", "group": "iridium-33-debris", "lat": -62.287089323993804, "lon": 163.44553954362883, "alt_km": 680.7303614258235, "timestamp": "2025-12-07T14:37:05.588890+00:00", "meta": {"OBJECT_NAME": "IRIDIUM 33 DEB", "OBJECT_ID": "1997-051GH", "EPOCH": "2025-12-06T11:15:07.046784", "MEAN_MOTION": 14.25471121, "ECCENTRICITY": 0.0189794, "INCLINATION": 86.4729, "RA_OF_ASC_NODE": 337.163, "ARG_OF_PERICENTER": 258.5632, "MEAN_ANOMALY": 256.3943, "EPHEMERIS_TYPE": 0, "CLASSIFICATION_TYPE": "U", "NORAD_CAT_ID": 34492, "ELEMENT_SET_NO": 999, "REV_AT_EPOCH": 84969, "BSTAR": 0.010564702, "MEAN_MOTION_DOT": 0.00030242, "MEAN_MOTION_DDOT": 0}, "tle": {"line1": "1 34492U 97051GH  25340.46883156  .00030242  00000+0  10565-1 0  9997", "line2": "2 34492  86.4729 337.1630 0189794 258.5632 256.3943 14.25471121849698"}}, "geometry": {"type": "Point", "coordinates": [163.44553954362883, -62.287089323993804]}}, {"type": "Feature", "properties": {"norad_id": 34497, "name": "IRIDIUM 33 DEB", "group": "iridium-33-debris", "lat": 85.99342965179162, "lon": 122.90601873671854, "alt_km": 794.5868176655695, "timestamp": "2025-12-07T14:37:05.588901+00:00", "meta": {"OBJECT_NAME": "IRIDIUM 33 DEB", "OBJECT_ID": "1997-051GN", "EPOCH": "2025-12-06T11:20:43.375200", "MEAN_MOTION": 14.27426067, "ECCENTRICITY": 0.00794495, "INCLINATION": 86.2786, "RA_OF_ASC_NODE": 55.0789, "ARG_OF_PERICENTER": 359.9883, "MEAN_ANOMALY": 11.7804, "EPHEMERIS_TYPE": 0, "CLASSIFICATION_TYPE": "U", "NORAD_CAT_ID": 34497, "ELEMENT_SET_NO": 999, "REV_AT_EPOCH": 86794, "BSTAR": 0.0011602474, "MEAN_MOTION_DOT": 2.96e-05, "MEAN_MOTION_DDOT": 0}, "tle": {"line1": "1 34497U 97051GN  25340.47272425  .00002960  00000+0  11602-2 0  9994", "line2": "2 34497  86.2786  55.0789 0079449 359.9883  11.7804 14.27426067867942"}}, "geometry": {"type": "Point", "coordinates": [122.90601873671854, 85.99342965179162]}}, {"type": "Feature", "properties": {"norad_id": 34508, "name": "IRIDIUM 33 DEB", "group": "iridium-33-debris", "lat": 43.12252617748636, "lon": 108.22564731719908, "alt_km": 799.3000814166171, "timestamp": "2025-12-07T14:37:05.588911+00:00", "meta": {"OBJECT_NAME": "IRIDIUM 33 DEB", "OBJECT_ID": "1997-051GZ", "EPOCH": "2025-12-06T01:40:58.602144", "MEAN_MOTION": 14.38332013, "ECCENTRICITY": 0.00656496, "INCLINATION": 86.3709, "RA_OF_ASC_NODE": 105.4704, "ARG_OF_PERICENTER": 194.575, "MEAN_ANOMALY": 165.3557, "EPHEMERIS_TYPE": 0, "CLASSIFICATION_TYPE": "U", "NORAD_CAT_ID": 34508, "ELEMENT_SET_NO": 999, "REV_AT_EPOCH": 87213, "BSTAR": 0.0029041862, "MEAN_MOTION_DOT": 9.088e-05, "MEAN_MOTION_DDOT": 0}, "tle": {"line1": "1 34508U 97051GZ  25340.07012271  .00009088  00000+0  29042-2 0  9999", "line2": "2 34508  86.3709 105.4704 0065649 194.5750 165.3557 14.38332013872138"}}, "geometry": {"type": "Point", "coordinates": [108.22564731719908, 43.12252617748636]}}, {"type": "Feature", "properties": {"norad_id": 34521, "name": "IRIDIUM 33 DEB", "group": "iridium-33-debris", "lat": 58.236032347262416, "lon": -153.06113920664475, "alt_km": 677.5647788528995, "timestamp": "2025-12-07T14:37:05.588922+00:00", "meta": {"OBJECT_NAME": "IRIDIUM 33 DEB", "OBJECT_ID": "1997-051HN", "EPOCH": "2025-12-06T13:26:47.996736", "MEAN_MOTION": 14.63284737, "ECCENTRICITY": 0.00010642, "INCLINATION": 86.3802, "RA_OF_ASC_NODE": 33.2686, "ARG_OF_PERICENTER": 262.3023, "MEAN_ANOMALY": 97.8068, "EPHEMERIS_TYPE": 0, "CLASSIFICATION_TYPE": "U", "NORAD_CAT_ID": 34521, "ELEMENT_SET_NO": 999, "REV_AT_EPOCH": 88382, "BSTAR": 0.0016169867, "MEAN_MOTION_DOT": 8.362e-05, "MEAN_MOTION_DDOT": 0}, "tle": {"line1": "1 34521U 97051HN  25340.56027774  .00008362  00000+0  16170-2 0  9994", "line2": "2 34521  86.3802  33.2686 0001064 262.3023  97.8068 14.63284737883823"}}, "geometry": {"type": "Point", "coordinates": [-153.06113920664475, 58.236032347262416]}}, {"type": "Feature", "properties": {"norad_id": 34525, "name": "IRIDIUM 33 DEB", "group": "iridium-33-debris", "lat": -42.59289348102517, "lon": 45.69149914296221, "alt_km": 759.6722082620918, "timestamp": "2025-12-07T14:37:05.588933+00:00", "meta": {"OBJECT_NAME": "IRIDIUM 33 DEB", "OBJECT_ID": "1997-051HS", "EPOCH": "2025-12-06T03:59:55.296672", "MEAN_MOTION": 14.42880527, "ECCENTRICITY": 0.00065785, "INCLINATION": 86.3735, "RA_OF_ASC_NODE": 49.6493, "ARG_OF_PERICENTER": 110.3274, "MEAN_ANOMALY": 279.0864, "EPHEMERIS_TYPE": 0, "CLASSIFICATION_TYPE": "U", "NORAD_CAT_ID": 34525, "ELEMENT_SET_NO": 999, "REV_AT_EPOCH": 87993, "BSTAR": 0.0007253314, "MEAN_MOTION_DOT": 2.441e-05, "MEAN_MOTION_DDOT": 0}, "tle": {"line1": "1 34525U 97051HS  25340.16661223  .00002441  00000+0  72533-3 0  9995", "line2": "2 34525  86.3735  49.6493 0006578 110.3274 279.0864 14.42880527879935"}}, "geometry": {"type": "Point", "coordinates": [45.69149914296221, -42.59289348102517]}}]}